STARLINK-5287           
1 55293U 23010AA  23354.91864643  .00000804  00000+0  75186-4 0  9990
2 55293  69.9993 266.1616 0002628 249.0974 110.9904 14.98333580 51972
STARLINK-5286           
1 55294U 23010AB  23355.12332104  .00003025  00000+0  26118-3 0  9995
2 55294  70.0003 285.5388 0002087 259.4727 100.6197 14.98334793 51213
STARLINK-5293           
1 55295U 23010AC  23355.16506482  .00000187  00000+0  23439-4 0  9992
2 55295  70.0001 285.6884 0002250 256.5229 103.5679 14.98345932 51215
STARLINK-5285           
1 55296U 23010AD  23355.16898548  .00000959  00000+0  88127-4 0  9992
2 55296  70.0004 265.4326 0002286 231.3674 128.7281 14.98333779 51708
STARLINK-5284           
1 55297U 23010AE  23355.17733355  .00002451  00000+0  21311-3 0  9998
2 55297  69.9995 265.4596 0002524 246.9440 113.1453 14.98336724 51704
STARLINK-5272           
1 55298U 23010AF  23355.16481372  .00001898  00000+0  16681-3 0  9995
2 55298  70.0011 265.4168 0002006 246.9282 113.1666 14.98332719 51707
STARLINK-5270           
1 55299U 23010AG  23355.16915228  .00002426  00000+0  21101-3 0  9999
2 55299  69.9995 265.4324 0002311 247.0433 113.0482 14.98333835 51704
STARLINK-5308           
1 55300U 23010AH  23354.89360612  .00002254  00000+0  19666-3 0  9994
2 55300  70.0018 266.0773 0002410 225.5312 134.5651 14.98332579 51977
STARLINK-5321           
1 55302U 23010AK  23354.90612732  .00001735  00000+0  15314-3 0  9990
2 55302  69.9996 266.1153 0002402 250.0384 110.0516 14.98328818 51977
STARLINK-5322           
1 55303U 23010AL  23355.24431716  .00004936  00000+0  42123-3 0  9994
2 55303  70.0001 285.1574 0002123 264.0979  95.9938 14.98328766 51231
STARLINK-5318           
1 55304U 23010AM  23355.15646616  .00002188  00000+0  19109-3 0  9997
2 55304  70.0009 265.3866 0002302 231.8246 128.2705 14.98331712 51701
STARLINK-5316           
1 55305U 23010AN  23355.15231836  .00002089  00000+0  18278-3 0  9998
2 55305  69.9998 265.7758 0002068 249.2250 110.8687 14.98332464 51696
STARLINK-5295           
1 55306U 23010AP  23354.92260113  .00001907  00000+0  16756-3 0  9990
2 55306  69.9995 246.3003 0002261 257.1085 102.9822 14.98326149 52474
STARLINK-5288           
1 55307U 23010AQ  23355.46086971 -.00000943  00000+0 -71319-4 0  9997
2 55307  69.9988 244.9693 0002334 263.9861  96.1032 14.98314584 52235
STARLINK-5292           
1 55308U 23010AR  23354.90607167  .00001043  00000+0  95236-4 0  9996
2 55308  69.9992 246.2411 0002295 264.6212  95.4685 14.98326727 53349
STARLINK-5315           
1 55309U 23010AS  23354.92276403  .00001742  00000+0  15372-3 0  9992
2 55309  69.9993 246.3018 0002482 252.5931 107.4957 14.98331695 52476
STARLINK-5309           
1 55310U 23010AT  23354.91425091  .00001332  00000+0  11943-3 0  9997
2 55310  69.9994 246.2710 0002367 253.1027 106.9872 14.98330094 52474
STARLINK-5312           
1 55311U 23010AU  23354.91842753  .00002150  00000+0  18792-3 0  9994
2 55311  70.0005 246.2877 0002102 249.7000 110.3934 14.98323545 53342
STARLINK-5296           
1 55312U 23010AV  23354.88920266  .00001146  00000+0  10383-3 0  9999
2 55312  69.9983 246.0665 0002683 282.0797  78.0062 14.98324705 53346
STARLINK-5313           
1 55313U 23010AW  23355.10617969  .00000958  00000+0  88031-4 0  9995
2 55313  69.9996 245.7356 0002410 252.1154 107.9742 14.98336963 52184
STARLINK-5305           
1 55314U 23010AX  23354.91007812  .00001278  00000+0  11491-3 0  9995
2 55314  69.9999 246.2544 0002348 259.5570 100.5324 14.98327034 53349
STARLINK-4623           
1 55315U 23010AY  23355.18986291  .00001838  00000+0  16184-3 0  9999
2 55315  70.0000 265.5027 0002004 256.1617 103.9319 14.98327609 51718
STARLINK-5257           
1 55316U 23010AZ  23354.88086052  .00001685  00000+0  14902-3 0  9998
2 55316  69.9997 246.1682 0002008 266.4596  93.6334 14.98325652 53346
STARLINK-5265           
1 55317U 23010BA  23355.10203365 -.00000339  00000+0 -20668-4 0  9997
2 55317  69.9997 245.7482 0002179 234.7103 125.3853 14.98306736 52194
STARLINK-5180           
1 55318U 23010BB  23354.89754451  .00001217  00000+0  10977-3 0  9995
2 55318  69.9996 246.2110 0002453 265.8314  94.2564 14.98340781 53341
STARLINK-5196           
1 55319U 23010BC  23354.89337893  .00001198  00000+0  10817-3 0  9994
2 55319  69.9990 246.1958 0002559 259.2117 100.8754 14.98328942 53340
HAWK-6B                 
1 55324U 23011A   23354.86219780  .00004951  00000+0  31649-3 0  9998
2 55324  40.5163 200.8574 0005788 335.0240  25.0284 15.09147372 49789
HAWK-6C                 
1 55326U 23011C   23354.86184530  .00004117  00000+0  26501-3 0  9999
2 55326  40.4848 199.9071 0006101 329.5642  30.4807 15.09142313 49796
HAWK-6A                 
1 55327U 23011D   23354.86175106  .00005083  00000+0  32465-3 0  9998
2 55327  40.5010 200.4055 0006246 325.2570  34.7825 15.09145966 49796
STARLINK-5492           
1 55331U 23013A   23355.44781088  .00020200  00000+0  15051-2 0  9991
2 55331  43.0043  17.9441 0001192 264.4847  95.5859 15.02561494 50404
