OBJECT_NAME,OBJECT_ID,EPOCH,MEAN_MOTION,ECCENTRICITY,INCLINATION,RA_OF_ASC_NODE,ARG_OF_PERICENTER,MEAN_ANOMALY,EPHEMERIS_TYPE,CLASSIFICATION_TYPE,NORAD_CAT_ID,ELEMENT_SET_NO,REV_AT_EPOCH,BSTAR,MEAN_MOTION_DOT,MEAN_MOTION_DDOT
STARLINK-5287,2023-010AA,2023-12-20T22:02:51.051552,14.9833358,0.0002628,69.9993,266.1616,249.0974,110.9904,0,U,55293,999,5197,7.52E-05,8.04E-06,0
STARLINK-5286,2023-010AB,2023-12-21T02:57:34.937856,14.98334793,0.0002087,70.0003,285.5388,259.4727,100.6197,0,U,55294,999,5121,2.61E-04,3.03E-05,0
STARLINK-5293,2023-010AC,2023-12-21T03:57:41.600448,14.98345932,0.000225,70.0001,285.6884,256.5229,103.5679,0,U,55295,999,5121,2.34E-05,1.87E-06,0
STARLINK-5285,2023-010AD,2023-12-21T04:03:20.345472,14.98333779,0.0002286,70.0004,265.4326,231.3674,128.7281,0,U,55296,999,5170,8.81E-05,9.59E-06,0
STARLINK-5284,2023-010AE,2023-12-21T04:15:21.618720,14.98336724,0.0002524,69.9995,265.4596,246.944,113.1453,0,U,55297,999,5170,2.13E-04,2.45E-05,0
STARLINK-5272,2023-010AF,2023-12-21T03:57:19.905408,14.98332719,0.0002006,70.0011,265.4168,246.9282,113.1666,0,U,55298,999,5170,1.67E-04,1.90E-05,0
STARLINK-5270,2023-010AG,2023-12-21T04:03:34.756992,14.98333835,0.0002311,69.9995,265.4324,247.0433,113.0482,0,U,55299,999,5170,2.11E-04,2.43E-05,0
STARLINK-5308,2023-010AH,2023-12-20T21:26:47.568768,14.98332579,0.000241,70.0018,266.0773,225.5312,134.5651,0,U,55300,999,5197,1.97E-04,2.25E-05,0
STARLINK-5321,2023-010AK,2023-12-20T21:44:49.400448,14.98328818,0.0002402,69.9996,266.1153,250.0384,110.0516,0,U,55302,999,5197,1.53E-04,1.74E-05,0
STARLINK-5322,2023-010AL,2023-12-21T05:51:49.002624,14.98328766,0.0002123,70.0001,285.1574,264.0979,95.9938,0,U,55303,999,5123,4.21E-04,4.94E-05,0
STARLINK-5318,2023-010AM,2023-12-21T03:45:18.676224,14.98331712,0.0002302,70.0009,265.3866,231.8246,128.2705,0,U,55304,999,5170,1.91E-04,2.19E-05,0
STARLINK-5316,2023-010AN,2023-12-21T03:39:20.306304,14.98332464,0.0002068,69.9998,265.7758,249.225,110.8687,0,U,55305,999,5169,1.83E-04,2.09E-05,0
STARLINK-5295,2023-010AP,2023-12-20T22:08:32.737632,14.98326149,0.0002261,69.9995,246.3003,257.1085,102.9822,0,U,55306,999,5247,1.68E-04,1.91E-05,0
STARLINK-5288,2023-010AQ,2023-12-21T11:03:39.142944,14.98314584,0.0002334,69.9988,244.9693,263.9861,96.1032,0,U,55307,999,5223,-7.13E-05,-9.43E-06,0
STARLINK-5292,2023-010AR,2023-12-20T21:44:44.592288,14.98326727,0.0002295,69.9992,246.2411,264.6212,95.4685,0,U,55308,999,5334,9.52E-05,1.04E-05,0
STARLINK-5315,2023-010AS,2023-12-20T22:08:46.812192,14.98331695,0.0002482,69.9993,246.3018,252.5931,107.4957,0,U,55309,999,5247,1.54E-04,1.74E-05,0
STARLINK-5309,2023-010AT,2023-12-20T21:56:31.278624,14.98330094,0.0002367,69.9994,246.271,253.1027,106.9872,0,U,55310,999,5247,1.19E-04,1.33E-05,0
STARLINK-5312,2023-010AU,2023-12-20T22:02:32.138592,14.98323545,0.0002102,70.0005,246.2877,249.7,110.3934,0,U,55311,999,5334,1.88E-04,2.15E-05,0
STARLINK-5296,2023-010AV,2023-12-20T21:20:27.109824,14.98324705,0.0002683,69.9983,246.0665,282.0797,78.0062,0,U,55312,999,5334,1.04E-04,1.15E-05,0
STARLINK-5313,2023-010AW,2023-12-21T02:32:53.925216,14.98336963,0.000241,69.9996,245.7356,252.1154,107.9742,0,U,55313,999,5218,8.80E-05,9.58E-06,0
STARLINK-5305,2023-010AX,2023-12-20T21:50:30.749568,14.98327034,0.0002348,69.9999,246.2544,259.557,100.5324,0,U,55314,999,5334,1.15E-04,1.28E-05,0
STARLINK-4623,2023-010AY,2023-12-21T04:33:24.155424,14.98327609,0.0002004,70,265.5027,256.1617,103.9319,0,U,55315,999,5171,1.62E-04,1.84E-05,0
STARLINK-5257,2023-010AZ,2023-12-20T21:08:26.348928,14.98325652,0.0002008,69.9997,246.1682,266.4596,93.6334,0,U,55316,999,5334,1.49E-04,1.69E-05,0
STARLINK-5265,2023-010BA,2023-12-21T02:26:55.707360,14.98306736,0.0002179,69.9997,245.7482,234.7103,125.3853,0,U,55317,999,5219,-2.07E-05,-3.39E-06,0
STARLINK-5180,2023-010BB,2023-12-20T21:32:27.845664,14.98340781,0.0002453,69.9996,246.211,265.8314,94.2564,0,U,55318,999,5334,1.10E-04,1.22E-05,0
STARLINK-5196,2023-010BC,2023-12-20T21:26:27.939552,14.98328942,0.0002559,69.999,246.1958,259.2117,100.8754,0,U,55319,999,5334,1.08E-04,1.20E-05,0
HAWK-6B,2023-011A,2023-12-20T20:41:33.889920,15.09147372,0.0005788,40.5163,200.8574,335.024,25.0284,0,U,55324,999,4978,3.16E-04,4.95E-05,0
HAWK-6C,2023-011C,2023-12-20T20:41:03.433920,15.09142313,0.0006101,40.4848,199.9071,329.5642,30.4807,0,U,55326,999,4979,2.65E-04,4.12E-05,0
HAWK-6A,2023-011D,2023-12-20T20:40:55.291584,15.09145966,0.0006246,40.501,200.4055,325.257,34.7825,0,U,55327,999,4979,3.25E-04,5.08E-05,0
STARLINK-5492,2023-013A,2023-12-21T10:44:50.860032,15.02561494,0.0001192,43.0043,17.9441,264.4847,95.5859,0,U,55331,999,5040,1.51E-03,2.02E-04,0
